NUSHSAT1                
1 63211U 25052B   26068.64700493  .00023034  00000+0  74857-3 0  9997
2 63211  97.4095 325.7239 0005501  84.7512 275.4357 15.31903202 54882
STARLINK-33728          
1 63715U 25087U   26068.70381116  .00026741  00000+0  91185-3 0  9999
2 63715  53.1573 219.3537 0000881  73.6575 286.4522 15.30196292 49200
